Corps du système solaire : Vénus (Planet)
Époque : 2022-03-29T20:31:09.925 / +1000 / 1 Jour / UTC
Système de coordonnées (ICRF) : Héliocentre – Écliptique – Astrométrique J2000 – Cartésiennes
Options : INPOP19a
Éphémérides de position
Colonnes :
1: Date (undefined)
2: px (au)
3: py (au)
4: pz (au)
5: Dobs (au)
6: Phase (deg)
7: VMag (mag)
8: vx (au/d)
9: vy (au/d)
10: vz (au/d)
11: RV (km/s)
$$SOE
2460116.354975984 -0.413434465319  -0.59469828027  0.015691194198 0.724458635979 0  -5.8  0.016466262744 -0.011638470326 -0.001109940363  0.2300172
2460117.354975984 -0.396809511453  -0.60610387735  0.014575294214 0.724591014104 0  -5.8  0.016781485175 -0.011171304529 -0.001121715491  0.2283676
2460118.354975984 -0.379875926937  -0.61703806217  0.013448057769 0.724722388429 0  -5.8  0.017083486913 -0.010695707314 -0.001132611986  0.2265414
2460119.354975984 -0.362647042858 -0.627492591258  0.012310367288 0.724852657386 0  -5.8  0.017372048897 -0.010212055473 -0.001142622378  0.2245401
2460120.354975984 -0.345136404008 -0.637459600622  0.011163112316 0.724981720372 0  -5.8  0.017646962808 -0.009720731128 -0.001151739893  0.2223655
2460121.354975984 -0.327357758075 -0.646931610933  0.010007188828  0.72510947782 0  -5.8  0.017908031181  -0.00922212143 -0.001159958451  0.2200194
2460122.354975984 -0.309325044749 -0.655901532392  0.008843498528 0.725235831278 0  -5.8  0.018155067499 -0.008716618244  -0.00116727267  0.2175039
2460123.354975984 -0.291052384721 -0.664362669294  0.007672948155 0.725360683478 0 -5.79   0.01838789629  -0.00820461784 -0.001173677863  0.2148211
2460124.354975984 -0.272554068598 -0.672308724275  0.006496448786 0.725483938411 0 -5.79  0.018606353205 -0.007686520585 -0.001179170043  0.2119731
2460125.354975984 -0.253844545741 -0.679733802254  0.005314915134 0.725605501393 0 -5.79  0.018810285095 -0.007162730626 -0.001183745921  0.2089624
2460126.354975984 -0.234938413037 -0.686632414061  0.004129264857 0.725725279143 0 -5.79  0.018999550075 -0.006633655586 -0.001187402903  0.2057914
2460127.354975984 -0.215850403597  -0.69299947975  0.002940417852 0.725843179843 0 -5.79  0.019174017581 -0.006099706249 -0.001190139096  0.2024628
2460128.354975984  -0.19659537542 -0.698830331613  0.001749295567 0.725959113211 0 -5.79   0.01933356842  -0.00556129625 -0.001191953297  0.1989792
2460129.354975984 -0.177188299989 -0.704120716871  0.000556820303 0.726072990565 0 -5.79  0.019478094812 -0.005018841767 -0.001192845002  0.1953434
2460130.354975984 -0.157644250855 -0.708866800063  -0.00063608548  0.72618472489 0 -5.79   0.01960750042 -0.004472761211 -0.001192814393  0.1915585
2460131.354975984 -0.137978392167 -0.713065165128 -0.001828499848 0.726294230898 0 -5.79  0.019721700378 -0.003923474918 -0.001191862343  0.1876275
2460132.354975984   -0.1182059672 -0.716712817175 -0.003019502083 0.726401425093 0 -5.79  0.019820621307 -0.003371404844 -0.001189990411  0.1835534
2460133.354975984 -0.098342286862 -0.719807183948 -0.004208173367 0.726506225831 0 -5.79  0.019904201327 -0.002816974257 -0.001187200834  0.1793397
2460134.354975984 -0.078402718191 -0.722346116987 -0.005393597458 0.726608553376 0 -5.79  0.019972390054 -0.002260607433  -0.00118349653  0.1749895
2460135.354975984 -0.058402672861 -0.724327892487  -0.00657486137  0.72670832996 0 -5.79    0.0200251486 -0.001702729355 -0.001178881088  0.1705065
2460136.354975984 -0.038357595694 -0.725751211852 -0.007751056037 0.726805479837 0 -5.79  0.020062449559 -0.001143765413 -0.001173358766  0.1658941
2460137.354975984 -0.018282953185 -0.726615201953 -0.008921276985 0.726899929336 0 -5.79  0.020084276985 -0.000584141102 -0.001166934483  0.1611559
2460138.354975984  0.001805777943 -0.726919415087  -0.01008462499 0.726991606915 0 -5.78  0.020090626368 -0.000024281731 -0.001159613817  0.1562958
2460139.354975984  0.021893122161 -0.726663828637 -0.011240206728 0.727080443208 0 -5.78  0.020081504599   0.00053538788 -0.001151402998  0.1513174
2460140.354975984   0.04196361651 -0.725848844449 -0.012387135431 0.727166371075 0 -5.78  0.020056929928   0.00109444368 -0.001142308897  0.1462248
2460141.354975984  0.062001821946 -0.724475287902  -0.01352453152 0.727249325649 0 -5.78   0.02001693192   0.00165246269 -0.001132339028  0.1410218
2460142.354975984  0.081992334621 -0.722544406707 -0.014651523247 0.727329244382 0 -5.78  0.019961551401  0.002209023279 -0.001121501533  0.1357126
2460143.354975984  0.101919797118 -0.720057869408 -0.015767247318 0.727406067083 0 -5.78  0.019890840396  0.002763705454 -0.001109805178  0.1303012
2460144.354975984  0.121768909616 -0.717017763606 -0.016870849513 0.727479735965 0 -5.78  0.019804862063  0.003316091142 -0.001097259346  0.1247919
2460145.354975984  0.141524440988 -0.713426593898 -0.017961485301 0.727550195679 0 -5.78  0.019703690625  0.003865764467 -0.001083874028  0.1191889
2460146.354975984  0.161171239828 -0.709287279543 -0.019038320442 0.727617393356 0 -5.78  0.019587411285  0.004412312027 -0.001069659815  0.1134965
2460147.354975984  0.180694245388 -0.704603151849 -0.020100531583 0.727681278639 0 -5.78  0.019456120148  0.004955323169 -0.001054627889  0.1077191
2460148.354975984  0.200078498437 -0.699377951294 -0.021147306844 0.727741803718 0 -5.78  0.019309924127  0.005494390254 -0.001038790013  0.1018611
2460149.354975984  0.219309152021 -0.693615824368 -0.022177846397 0.727798923361 0 -5.78   0.01914894085  0.006029108933 -0.001022158524  0.0959271
2460150.354975984  0.238371482126 -0.687321320164 -0.023191363033 0.727852594941 0 -5.78  0.018973298558  0.006559078403 -0.001004746325  0.0899215
2460151.354975984  0.257250898241  -0.68049938669 -0.024187082723 0.727902778468 0 -5.78  0.018783135997  0.007083901673 -0.000986566871   0.083849
2460152.354975984  0.275932953806 -0.673155366932 -0.025164245167 0.727949436609 0 -5.78  0.018578602307   0.00760318582 -0.000967634159  0.0777142
2460153.354975984   0.29440335655  -0.66529499466 -0.026122104329 0.727992534715 0 -5.78  0.018359856908  0.008116542245 -0.000947962725  0.0715217
2460154.354975984  0.312647978705 -0.656924389976  -0.02705992897  0.72803204084 0 -5.78   0.01812706937  0.008623586923 -0.000927567623  0.0652762
2460155.354975984  0.330652867099 -0.648050054616 -0.027977003167 0.728067925756 0 -5.78  0.017880419294  0.009123940651 -0.000906464424  0.0589825
2460156.354975984  0.348404253117 -0.638678867005 -0.028872626814 0.728100162978 0 -5.78  0.017620096172  0.009617229297 -0.000884669199  0.0526454
2460157.354975984  0.365888562524 -0.628818077068 -0.029746116126 0.728128728769 0 -5.78  0.017346299256  0.010103084035 -0.000862198509  0.0462695
2460158.354975984  0.383092425155 -0.618475300801 -0.030596804116 0.728153602158 0 -5.78  0.017059237409  0.010581141586 -0.000839069394  0.0398597
2460159.354975984  0.400002684456 -0.607658514608 -0.031424041077 0.728174764947 0 -5.78  0.016759128965  0.011051044454 -0.000815299363  0.0334208
2460160.354975984  0.416606406872 -0.596376049402 -0.032227195034 0.728192201721 0 -5.78   0.01644620157  0.011512441155  -0.00079090638  0.0269576
2460161.354975984  0.432890891087 -0.584636584482 -0.033005652202 0.728205899851 0 -5.78  0.016120692031  0.011964986443 -0.000765908851   0.020475
2460162.354975984  0.448843677105 -0.572449141177 -0.033758817418 0.728215849501 0 -5.78  0.015782846152  0.012408341537 -0.000740325615  0.0139778
2460163.354975984   0.46445255516 -0.559823076277 -0.034486114568 0.728222043628 0 -5.78  0.015432918568  0.012842174338 -0.000714175929  0.0074707
2460164.354975984  0.479705574467  -0.54676807524 -0.035186986999 0.728224477981 0 -5.78  0.015071172576  0.013266159647 -0.000687479455  0.0009588
2460165.354975984  0.494591051795 -0.533294145184 -0.035860897916 0.728223151104 0 -5.78  0.014697879962  0.013679979377 -0.000660256248 -0.0055533
2460166.354975984  0.509097579868 -0.519411607673 -0.036507330773 0.728218064327 0 -5.78  0.014313320818   0.01408332276 -0.000632526744 -0.0120606
2460167.354975984  0.523214035575 -0.505131091294  -0.03712578964  0.72820922177 0 -5.78   0.01391778336  0.014475886554 -0.000604311742 -0.0185584
2460168.354975984  0.536929588009 -0.490463524028 -0.037715799569 0.728196630326 0 -5.78  0.013511563743  0.014857375244 -0.000575632397 -0.0250419
2460169.354975984  0.550233706303 -0.475420125432 -0.038276906931 0.728180299666 0 -5.78  0.013094965866  0.015227501236 -0.000546510201 -0.0315062
2460170.354975984  0.563116167281 -0.460012398612 -0.038808679756 0.728160242223 0 -5.78  0.012668301175  0.015585985052 -0.000516966968 -0.0379466
2460171.354975984  0.575567062899 -0.444252122021 -0.039310708044 0.728136473184 0 -5.78  0.012231888465  0.015932555516 -0.000487024827 -0.0443583
2460172.354975984  0.587576807501 -0.428151341057 -0.039782604072 0.728109010485 0 -5.78  0.011786053674  0.016266949941 -0.000456706199 -0.0507366
2460173.354975984  0.599136144851 -0.411722359487 -0.040224002682 0.728077874791 0 -5.78  0.011331129674   0.01658891431 -0.000426033787 -0.0570768
2460174.354975984  0.610236154963 -0.394977730691  -0.04063456155 0.728043089492 0 -5.78  0.010867456058  0.016898203446 -0.000395030562 -0.0633741
2460175.354975984  0.620868260712 -0.377930248731 -0.041013961453 0.728004680685 0 -5.78  0.010395378923   0.01719458119 -0.000363719743 -0.0696239
2460176.354975984  0.631024234232 -0.360592939255 -0.041361906504  0.72796267716 0 -5.78  0.009915250648  0.017477820565 -0.000332124789 -0.0758215
2460177.354975984  0.640696203081 -0.342979050227 -0.041678124389 0.727917110384 0 -5.78  0.009427429668  0.017747703938 -0.000300269377 -0.0819624
2460178.354975984  0.649876656187 -0.325102042511 -0.041962366573 0.727868014484 0 -5.78  0.008932280247  0.018004023179  -0.00026817739 -0.0880418
2460179.354975984  0.658558449555 -0.306975580283 -0.042214408501 0.727815426228 0 -5.78  0.008430172242  0.018246579812 -0.000235872901 -0.0940553
$$EOE
